HYPERFIELD-1A           
1 60562U 24149CY  26068.76488211  .00008569  00000+0  30052-3 0  9998
2 60562  97.3842 149.5066 0003865 313.7844  46.3076 15.29681349 86836
STARLINK-35595          
1 66101U 25236R   26068.50600630  .00029772  00000+0  10135-2 0  9992
2 66101  53.1592 104.9251 0001269  91.3710 268.7436 15.30193079 22853
